STARLINK-2702           
1 48441U 21040P   26068.52662542  .00009680  00000+0  33854-3 0  9990
2 48441  53.1591 178.9038 0001364  67.1350 292.9794 15.30197658266651
HERMES-3                
1 63835U 25052BR  26068.93751242  .00020316  00000+0  69958-3 0  9995
2 63835  97.3987 324.6131 0007993 112.9583 247.2502 15.30039785 54863
